{"type":"FeatureCollection","features":[{"type":"Feature","properties":{"name":"Indus River"},"geometry":{"type":"LineString","coordinates":[[80.5,31.8],[79.2,32.7],[78.2,33.5],[77.6,34.1],[76.5,34.7],[75.2,35.1],[74.5,35.4],[73.5,35.8]]}},{"type":"Feature","properties":{"name":"Jhelum River"},"geometry":{"type":"LineString","coordinates":[[75.2,33.6],[74.9,34],[74.8,34.1],[74.4,34.2],[73.8,34.1],[73.5,33.8]]}},{"type":"Feature","properties":{"name":"Chenab River"},"geometry":{"type":"LineString","coordinates":[[77.2,32.7],[76.5,33],[75.8,33.2],[75.2,33.1],[74.6,33],[74.2,32.8],[73.8,32.5]]}},{"type":"Feature","properties":{"name":"Ravi River"},"geometry":{"type":"LineString","coordinates":[[77,32.3],[76.4,32.4],[76,32.5],[75.7,32.4],[75.2,32.2],[74.8,31.8]]}},{"type":"Feature","properties":{"name":"Beas River"},"geometry":{"type":"LineString","coordinates":[[77.2,32.3],[77.1,32],[76.9,31.8],[76.5,31.9],[76,31.9],[75.5,31.5],[75,31.2]]}},{"type":"Feature","properties":{"name":"Sutlej River"},"geometry":{"type":"LineString","coordinates":[[79,31.3],[78.4,31.5],[77.8,31.4],[77.2,31.3],[76.6,31.3],[76.2,31.3],[75.8,31.1],[75,31.2]]}},{"type":"Feature","properties":{"name":"Bhagirathi"},"geometry":{"type":"LineString","coordinates":[[79,30.9],[78.6,30.7],[78.6,30.1]]}},{"type":"Feature","properties":{"name":"Alaknanda"},"geometry":{"type":"LineString","coordinates":[[79.6,30.7],[79.3,30.4],[78.9,30.3],[78.6,30.1]]}},{"type":"Feature","properties":{"name":"Ganga River"},"geometry":{"type":"LineString","coordinates":[[78.6,30.1],[78.3,30],[78.1,29.9],[78.1,29.5],[78.4,29],[78.8,28.5]]}},{"type":"Feature","properties":{"name":"Yamuna River"},"geometry":{"type":"LineString","coordinates":[[78.4,31],[78,30.6],[77.7,30.5],[77.4,30.3],[77.3,29.8],[77.2,29]]}},{"type":"Feature","properties":{"name":"Kali River"},"geometry":{"type":"LineString","coordinates":[[80.9,30.2],[80.5,29.9],[80.3,29.4],[80.1,28.9],[80.2,28.5]]}}]}